     2.100          NAVIGATION                              RINEX VERSION / TYPE
fic2rin                                 10/24/2009 01:02:00 PGM / RUN BY / DATE
                                                            END OF HEADER
 6 09 10 23  8  0  0.0  .255696475506D-03  .363797880709D-11  .000000000000D+00
     .860000000000D+02 -.556250000000D+01  .533665086436D-08 -.837668400457D+00
    -.217929482460D-06  .577267410699D-02  .650621950626D-05  .515369132805D+04
     .460800000000D+06 -.931322574615D-07  .215817838575D+01  .726431608200D-07
     .933820455496D+00  .241968750000D+03 -.122604796198D+01 -.844035157452D-08
     .153220667970D-09  .100000000000D+01  .155400000000D+04  .000000000000D+00
     .240000000000D+01  .000000000000D+00 -.512227416039D-08  .860000000000D+02
     .453606000000D+06  .400000000000D+01
 7 09 10 23  8  0  0.0  .908598303795D-05 -.682121026330D-12  .000000000000D+00
     .690000000000D+02 -.865625000000D+02  .441875548747D-08  .167282605752D+01
    -.433437526226D-05  .323506724089D-02  .571645796299D-05  .515365120506D+04
     .460800000000D+06  .987201929092D-07  .112769931057D+00  .465661287308D-07
     .969536662671D+00  .273156250000D+03  .299798064680D+01 -.813676750046D-08
    -.165364030933D-09  .100000000000D+01  .155400000000D+04  .000000000000D+00
     .240000000000D+01  .000000000000D+00 -.107102096081D-07  .690000000000D+02
     .453606000000D+06  .400000000000D+01
 8 09 10 23  8  0  0.0 -.136801972985D-04 -.355839802069D-10  .000000000000D+00
     .450000000000D+02 -.888125000000D+02  .389087635633D-08  .103578738607D+01
    -.455044209957D-05  .110213996377D-01  .573508441448D-05  .515361793518D+04
     .460800000000D+06  .875443220139D-07  .176166602229D+00  .124797224998D-06
     .990795154755D+00  .280468750000D+03  .304491711233D+01 -.785104131310D-08
    -.248581783000D-09  .100000000000D+01  .155400000000D+04  .000000000000D+00
     .240000000000D+01  .630000000000D+02 -.372529029846D-08  .450000000000D+02
     .453606000000D+06  .400000000000D+01
 9 09 10 23  8  0  0.0  .845151953399D-04  .204636307899D-11  .000000000000D+00
     .670000000000D+02 -.720312500000D+02  .434196657462D-08  .813335796689D+00
    -.393018126488D-05  .206261477433D-01  .588223338127D-05  .515362600327D+04
     .460800000000D+06 -.271946191788D-06  .798438480568D-01 -.800937414169D-07
     .978397675973D+00  .281031250000D+03  .151793465097D+01 -.832927551919D-08
    -.150006248362D-09  .100000000000D+01  .155400000000D+04  .000000000000D+00
     .240000000000D+01  .000000000000D+00 -.558793544769D-08  .670000000000D+02
     .453606000000D+06  .400000000000D+01
10 09 10 23  8  0  0.0 -.265357084572D-04 -.909494701773D-12  .000000000000D+00
     .490000000000D+02  .925312500000D+02  .442054127614D-08 -.176927389411D+01
     .452995300293D-05  .864763103891D-02  .782310962677D-05  .515339288330D+04
     .460800000000D+06  .447034835815D-07 -.195957984827D+01 -.126659870148D-06
     .956159398894D+00  .221562500000D+03  .615967529429D+00 -.790925802377D-08
     .101075638777D-09  .100000000000D+01  .155400000000D+04  .000000000000D+00
     .340000000000D+01  .000000000000D+00 -.279396772385D-08  .490000000000D+02
     .453606000000D+06  .400000000000D+01
11 09 10 23  8  0  0.0 -.255997292697D-04 -.181898940355D-11  .000000000000D+00
     .840000000000D+02 -.175000000000D+01  .622454499157D-08  .155252513245D+01
    -.104308128357D-06  .100893743802D-01  .788830220699D-05  .515370281410D+04
     .460800000000D+06 -.176951289177D-06  .303119677379D+01  .596046447754D-07
     .889334317761D+00  .191093750000D+03  .745080910628D+00 -.882751055839D-08
    -.385730352932D-09  .100000000000D+01  .155400000000D+04  .000000000000D+00
     .240000000000D+01  .000000000000D+00 -.116415321827D-07  .840000000000D+02
     .453606000000D+06  .400000000000D+01
12 09 10 23  8  0  0.0 -.200483482331D-03  .545696821064D-11  .000000000000D+00
     .830000000000D+02 -.451250000000D+02  .433482341994D-08  .176540161725D+01
    -.235065817833D-05  .306050747167D-02  .839121639729D-05  .515354727554D+04
     .460800000000D+06  .596046447754D-07  .116531326482D+01  .372529029846D-07
     .968210028577D+00  .219937500000D+03 -.581754821681D+00 -.778925302508D-08
     .185722021782D-09  .100000000000D+01  .155400000000D+04  .000000000000D+00
     .340000000000D+01  .000000000000D+00 -.116415321827D-07  .830000000000D+02
     .453606000000D+06  .400000000000D+01
13 09 10 23  8  0  0.0  .305819325149D-03  .227373675443D-12  .000000000000D+00
     .560000000000D+02  .225000000000D+02  .401338145916D-08 -.226688055459D+01
     .128522515297D-05  .395318283699D-02  .269152224064D-05  .515363737488D+04
     .460800000000D+06  .353902578354D-07 -.873115736455D+00  .242143869400D-07
     .994116888730D+00  .345875000000D+03  .166041521206D+01 -.796461747257D-08
     .110718897601D-09  .100000000000D+01  .155400000000D+04  .000000000000D+00
     .240000000000D+01  .000000000000D+00 -.111758708954D-07  .560000000000D+02
     .453606000000D+06  .400000000000D+01
15 09 10 23  8  0  0.0 -.320347025990D-03 -.113686837722D-12  .000000000000D+00
     .320000000000D+02  .370000000000D+02  .485663086960D-08 -.209666438628D+01
     .197440385818D-05  .187421625014D-02  .314414501190D-05  .515367510033D+04
     .460800000000D+06 -.894069671631D-07 -.950740032036D+00 -.130385160446D-07
     .955332089462D+00  .319125000000D+03 -.500087984592D+00 -.836213403073D-08
     .105004373854D-09  .100000000000D+01  .155400000000D+04  .000000000000D+00
     .240000000000D+01  .000000000000D+00 -.977888703346D-08  .320000000000D+02
     .453606000000D+06  .400000000000D+01
16 09 10 23  8  0  0.0 -.488013029099D-06 -.409272615798D-11  .000000000000D+00
     .101000000000D+03 -.335937500000D+02  .424696261733D-08 -.664095591481D+00
    -.177696347237D-05  .530013244133D-02  .897236168385D-05  .515364264679D+04
     .460800000000D+06  .260770320892D-07  .118247272335D+01 -.141561031342D-06
     .969557058675D+00  .213343750000D+03 -.270391286105D+00 -.782282585210D-08
     .251439044874D-09  .100000000000D+01  .155400000000D+04  .000000000000D+00
     .240000000000D+01  .000000000000D+00 -.977888703346D-08  .101000000000D+03
     .453606000000D+06  .400000000000D+01
18 09 10 23  8  0  0.0  .222148373723D-04  .272848410532D-11  .000000000000D+00
     .450000000000D+02  .860625000000D+02  .494877756502D-08 -.468281032459D+00
     .470131635666D-05  .109257424483D-01  .750087201595D-05  .515364142990D+04
     .460800000000D+06  .558793544769D-07 -.195640039771D+01  .184401869774D-06
     .940175718344D+00  .226218750000D+03 -.236475291498D+01 -.838999233400D-08
     .653598653579D-10  .100000000000D+01  .155400000000D+04  .000000000000D+00
     .240000000000D+01  .000000000000D+00 -.107102096081D-07  .450000000000D+02
     .453606000000D+06  .400000000000D+01
19 09 10 23  8  0  0.0  .496301800013D-05 -.181898940355D-11  .000000000000D+00
     .440000000000D+02 -.737500000000D+01  .477234164433D-08 -.248677121518D+01
    -.352039933205D-06  .586544256657D-02  .668130815029D-05  .515365787125D+04
     .460800000000D+06 -.102445483208D-06  .228121051159D+01  .298023223877D-07
     .957423677568D+00  .250656250000D+03 -.218422733475D+00 -.803604901941D-08
     .382158775590D-10  .100000000000D+01  .155400000000D+04  .000000000000D+00
     .240000000000D+01  .000000000000D+00 -.149011611938D-07  .440000000000D+02
     .453606000000D+06  .400000000000D+01
20 09 10 23  8  0  0.0  .693397596478D-04 -.909494701773D-12  .000000000000D+00
     .580000000000D+02  .950937500000D+02  .487306012537D-08 -.287903622421D+00
     .482983887196D-05  .389605725650D-02  .777468085289D-05  .515375611305D+04
     .460800000000D+06 -.242143869400D-07 -.201030677259D+01  .372529029846D-07
     .939946638539D+00  .223812500000D+03  .130109171834D+01 -.824570060939D-08
     .182150444440D-10  .100000000000D+01  .155400000000D+04  .000000000000D+00
     .240000000000D+01  .000000000000D+00 -.745058059692D-08  .580000000000D+02
     .453606000000D+06  .400000000000D+01
21 09 10 23  8  0  0.0 -.168215483427D-04 -.227373675443D-11  .000000000000D+00
     .920000000000D+02  .803125000000D+01  .511092717635D-08  .740692482621D+00
     .612810254097D-06  .156177593162D-01  .845082104206D-05  .515374251366D+04
     .460800000000D+06 -.189989805222D-06 -.301414924165D+01  .270083546638D-06
     .933812311431D+00  .204093750000D+03 -.255121196221D+01 -.833463288520D-08
    -.441446959466D-09  .100000000000D+01  .155400000000D+04  .000000000000D+00
     .340000000000D+01  .000000000000D+00 -.121071934700D-07  .920000000000D+02
     .453606000000D+06  .400000000000D+01
22 09 10 23  8  0  0.0  .188095029444D-03 -.795807864051D-12  .000000000000D+00
     .750000000000D+02  .878125000000D+02  .485734518507D-08 -.149619208954D+01
     .471249222755D-05  .532792392187D-02  .698305666447D-05  .515366790581D+04
     .460800000000D+06  .931322574615D-07 -.195102590294D+01  .119209289551D-06
     .937846204167D+00  .231875000000D+03 -.187866098803D+01 -.821105630917D-08
     .614311302817D-10  .100000000000D+01  .155400000000D+04  .000000000000D+00
     .240000000000D+01  .000000000000D+00 -.176951289177D-07  .750000000000D+02
     .453606000000D+06  .400000000000D+01
23 09 10 23  8  0  0.0  .387112610042D-03 -.568434188608D-12  .000000000000D+00
     .970000000000D+02  .292812500000D+02  .448768693017D-08 -.299744085197D+01
     .168010592461D-05  .637788337190D-02  .251270830631D-05  .515376477051D+04
     .460800000000D+06 -.707805156708D-07 -.928685074684D+00 -.353902578354D-07
     .969415812471D+00  .339781250000D+03  .299361829677D+01 -.815926843771D-08
     .112504686272D-09  .100000000000D+01  .155400000000D+04  .000000000000D+00
     .340000000000D+01  .000000000000D+00 -.200234353542D-07  .970000000000D+02
     .453606000000D+06  .400000000000D+01
